ONEWEB-0589             
1 54655U 22166P   24185.83366163  .00000047  00000+0  82705-4 0  9994
2 54655  87.9278  25.9927 0002268 111.6785 248.4591 13.21824652 77774
ONEWEB-0590             
1 54656U 22166Q   24185.85732145  .00000005  00000+0 -18326-4 0  9997
2 54656  87.9282  25.9956 0001662  86.0750 274.0574 13.21823216 77755
ONEWEB-0591             
1 54657U 22166R   24185.56712196 -.00000008  00000+0 -50912-4 0  9991
2 54657  87.9276  26.0486 0001829  91.6306 268.5037 13.21828311 77745
ONEWEB-0592             
1 54658U 22166S   24185.79738982  .00006542  00000+0  15804-1 0  9993
2 54658  87.9273  25.9679 0001548 109.5829 250.5472 13.21793368 77660
ONEWEB-0593             
1 54659U 22166T   24185.82103623  .00000068  00000+0  13307-3 0  9991
2 54659  87.9278  25.9887 0001873  95.0636 265.0712 13.21824551 77772
ONEWEB-0594             
1 54660U 22166U   24185.83995501 -.00000080  00000+0 -22465-3 0  9999
2 54660  87.9282  25.9855 0001935  84.7559 275.3795 13.21824333 77786
ONEWEB-0595             
1 54661U 22166V   24185.51510092  .00000090  00000+0  18744-3 0  9997
2 54661  87.9279  26.0371 0001673  80.5142 279.6181 13.21826589 77724
ONEWEB-0596             
1 54662U 22166W   24185.56398698  .00000018  00000+0  11091-4 0  9998
2 54662  87.9280  26.0333 0001739  97.4245 262.7086 13.21824296 77730
